{
    "links": {
        "self": "http://www.neowsapp.com/rest/v1/neo/3753291?api_key=iIulBulltgU6a56xZRHN4H3l9WmuAYTsLGpBGhQ2"
    },
    "id": "3753291",
    "neo_reference_id": "3753291",
    "name": "(2016 JW28)",
    "designation": "2016 JW28",
    "nasa_jpl_url": "http://ssd.jpl.nasa.gov/sbdb.cgi?sstr=3753291",
    "absolute_magnitude_h": 25.5,
    "estimated_diameter": {
        "kilometers": {
            "estimated_diameter_min": 0.0211132445,
            "estimated_diameter_max": 0.0472106499
        },
        "meters": {
            "estimated_diameter_min": 21.113244479,
            "estimated_diameter_max": 47.2106498806
        },
        "miles": {
            "estimated_diameter_min": 0.0131191578,
            "estimated_diameter_max": 0.0293353287
        },
        "feet": {
            "estimated_diameter_min": 69.2691770164,
            "estimated_diameter_max": 154.8905885541
        }
    },
    "is_potentially_hazardous_asteroid": false,
    "close_approach_data": [
        {
            "close_approach_date": "1989-09-07",
            "close_approach_date_full": "1989-Sep-07 21:48",
            "epoch_date_close_approach": 621208080000,
            "relative_velocity": {
                "kilometers_per_second": "16.7264626055",
                "kilometers_per_hour": "60215.2653799062",
                "miles_per_hour": "37415.4242023089"
            },
            "miss_distance": {
                "astronomical": "0.1203675763",
                "lunar": "46.8229871807",
                "kilometers": "18006733.031542481",
                "miles": "11188865.0712329978"
            },
            "orbiting_body": "Earth"
        },
        {
            "close_approach_date": "1992-08-29",
            "close_approach_date_full": "1992-Aug-29 13:21",
            "epoch_date_close_approach": 715094460000,
            "relative_velocity": {
                "kilometers_per_second": "13.5674301918",
                "kilometers_per_hour": "48842.7486903284",
                "miles_per_hour": "30348.9845959432"
            },
            "miss_distance": {
                "astronomical": "0.0243075447",
                "lunar": "9.4556348883",
                "kilometers": "3636356.912049789",
                "miles": "2259527.4094695282"
            },
            "orbiting_body": "Earth"
        },
        {
            "close_approach_date": "2016-05-14",
            "close_approach_date_full": "2016-May-14 12:21",
            "epoch_date_close_approach": 1463228460000,
            "relative_velocity": {
                "kilometers_per_second": "12.3996381513",
                "kilometers_per_hour": "44638.6973447858",
                "miles_per_hour": "27736.7505807087"
            },
            "miss_distance": {
                "astronomical": "0.0142849725",
                "lunar": "5.5568543025",
                "kilometers": "2137001.459008575",
                "miles": "1327871.132425335"
            },
            "orbiting_body": "Earth"
        }
    ],
    "orbital_data": {
        "orbit_id": "6",
        "orbit_determination_date": "2017-08-10 06:19:57",
        "first_observation_date": "2016-05-11",
        "last_observation_date": "2016-05-13",
        "data_arc_in_days": 2,
        "observations_used": 61,
        "orbit_uncertainty": "8",
        "minimum_orbit_intersection": ".00415598",
        "jupiter_tisserand_invariant": "3.531",
        "epoch_osculation": "2457520.5",
        "eccentricity": ".5791142299232351",
        "semi_major_axis": "2.081564984265751",
        "inclination": ".9191337493669091",
        "ascending_node_longitude": "217.2519723596402",
        "orbital_period": "1096.941298243383",
        "perihelion_distance": ".8761010813675194",
        "perihelion_argument": "65.39190262196853",
        "aphelion_distance": "3.287028887163983",
        "perihelion_time": "2457558.993686920084",
        "mean_anomaly": "347.3669381274808",
        "mean_motion": ".3281852917530738",
        "equinox": "J2000",
        "orbit_class": {
            "orbit_class_type": "APO",
            "orbit_class_description": "Near-Earth asteroid orbits which cross the Earth’s orbit similar to that of 1862 Apollo",
            "orbit_class_range": "a (semi-major axis) > 1.0 AU; q (perihelion) < 1.017 AU"
        }
    },
    "is_sentry_object": false
}